{
  "links" : {
    "next" : "https://api.nasa.gov/neo/rest/v1/feed?start_date=2007-12-23&end_date=2007-12-23&detailed=true&api_key=t0TVs3DtDT2H8Oy2Zy8m2eVrNsAVKAexjcZXUckd",
    "prev" : "https://api.nasa.gov/neo/rest/v1/feed?start_date=2007-12-21&end_date=2007-12-21&detailed=true&api_key=t0TVs3DtDT2H8Oy2Zy8m2eVrNsAVKAexjcZXUckd",
    "self" : "https://api.nasa.gov/neo/rest/v1/feed?start_date=2007-12-22&end_date=2007-12-22&detailed=true&api_key=t0TVs3DtDT2H8Oy2Zy8m2eVrNsAVKAexjcZXUckd"
  },
  "element_count" : 6,
  "near_earth_objects" : {
    "2007-12-22" : [ {
      "links" : {
        "self" : "https://api.nasa.gov/neo/rest/v1/neo/3370286?api_key=t0TVs3DtDT2H8Oy2Zy8m2eVrNsAVKAexjcZXUckd"
      },
      "neo_reference_id" : "3370286",
      "name" : "(2007 EV)",
      "nasa_jpl_url" : "http://ssd.jpl.nasa.gov/sbdb.cgi?sstr=3370286",
      "absolute_magnitude_h" : 25.0,
      "estimated_diameter" : {
        "kilometers" : {
          "estimated_diameter_min" : 0.02658,
          "estimated_diameter_max" : 0.0594346868
        },
        "meters" : {
          "estimated_diameter_min" : 26.58,
          "estimated_diameter_max" : 59.4346868419
        },
        "miles" : {
          "estimated_diameter_min" : 0.0165160412,
          "estimated_diameter_max" : 0.0369309908
        },
        "feet" : {
          "estimated_diameter_min" : 87.2047272,
          "estimated_diameter_max" : 194.9956979785
        }
      },
      "is_potentially_hazardous_asteroid" : false,
      "close_approach_data" : [ {
        "close_approach_date" : "2007-12-22",
        "epoch_date_close_approach" : 1198310400000,
        "relative_velocity" : {
          "kilometers_per_second" : "9.5003712442",
          "kilometers_per_hour" : "34201.3364790705",
          "miles_per_hour" : "21251.3804361202"
        },
        "miss_distance" : {
          "astronomical" : "0.4733773314",
          "lunar" : "184.1437835693",
          "kilometers" : "70816240",
          "miles" : "44003172"
        },
        "orbiting_body" : "Earth"
      } ],
      "orbital_data" : {
        "orbit_id" : "14",
        "orbit_determination_date" : "2017-04-06 09:06:50",
        "orbit_uncertainty" : "7",
        "minimum_orbit_intersection" : ".00360983",
        "jupiter_tisserand_invariant" : "5.632",
        "epoch_osculation" : "2458000.5",
        "eccentricity" : ".307849486935908",
        "semi_major_axis" : "1.090902968607357",
        "inclination" : "8.171848902396059",
        "ascending_node_longitude" : "357.3666204076808",
        "orbital_period" : "416.1765562712146",
        "perihelion_distance" : ".755069049424723",
        "perihelion_argument" : "268.5901918206919",
        "aphelion_distance" : "1.42673688778999",
        "perihelion_time" : "2457987.623495976552",
        "mean_anomaly" : "11.13840118716458",
        "mean_motion" : ".8650174897535425",
        "equinox" : "J2000"
      }
    }, {
      "links" : {
        "self" : "https://api.nasa.gov/neo/rest/v1/neo/3384070?api_key=t0TVs3DtDT2H8Oy2Zy8m2eVrNsAVKAexjcZXUckd"
      },
      "neo_reference_id" : "3384070",
      "name" : "(2007 RU10)",
      "nasa_jpl_url" : "http://ssd.jpl.nasa.gov/sbdb.cgi?sstr=3384070",
      "absolute_magnitude_h" : 19.1,
      "estimated_diameter" : {
        "kilometers" : {
          "estimated_diameter_min" : 0.4023045798,
          "estimated_diameter_max" : 0.8995803882
        },
        "meters" : {
          "estimated_diameter_min" : 402.3045798343,
          "estimated_diameter_max" : 899.5803881691
        },
        "miles" : {
          "estimated_diameter_min" : 0.2499803991,
          "estimated_diameter_max" : 0.5589731654
        },
        "feet" : {
          "estimated_diameter_min" : 1319.8969577037,
          "estimated_diameter_max" : 2951.3793207207
        }
      },
      "is_potentially_hazardous_asteroid" : false,
      "close_approach_data" : [ {
        "close_approach_date" : "2007-12-22",
        "epoch_date_close_approach" : 1198310400000,
        "relative_velocity" : {
          "kilometers_per_second" : "16.8970457243",
          "kilometers_per_hour" : "60829.3646074091",
          "miles_per_hour" : "37797.0015806426"
        },
        "miss_distance" : {
          "astronomical" : "0.3275791738",
          "lunar" : "127.4282989502",
          "kilometers" : "49005148",
          "miles" : "30450386"
        },
        "orbiting_body" : "Earth"
      } ],
      "orbital_data" : {
        "orbit_id" : "20",
        "orbit_determination_date" : "2017-08-18 06:21:27",
        "orbit_uncertainty" : "1",
        "minimum_orbit_intersection" : ".0957584",
        "jupiter_tisserand_invariant" : "3.216",
        "epoch_osculation" : "2458000.5",
        "eccentricity" : ".6865294416770739",
        "semi_major_axis" : "2.273613136257906",
        "inclination" : "15.18687917391079",
        "ascending_node_longitude" : "325.14239174",
        "orbital_period" : "1252.198795193434",
        "perihelion_distance" : ".7127107792331048",
        "perihelion_argument" : "132.7969321470589",
        "aphelion_distance" : "3.834515493282706",
        "perihelion_time" : "2458215.006218979983",
        "mean_anomaly" : "298.3306874841186",
        "mean_motion" : ".2874942871546118",
        "equinox" : "J2000"
      }
    }, {
      "links" : {
        "self" : "https://api.nasa.gov/neo/rest/v1/neo/3532366?api_key=t0TVs3DtDT2H8Oy2Zy8m2eVrNsAVKAexjcZXUckd"
      },
      "neo_reference_id" : "3532366",
      "name" : "(2010 MJ1)",
      "nasa_jpl_url" : "http://ssd.jpl.nasa.gov/sbdb.cgi?sstr=3532366",
      "absolute_magnitude_h" : 23.6,
      "estimated_diameter" : {
        "kilometers" : {
          "estimated_diameter_min" : 0.0506471459,
          "estimated_diameter_max" : 0.1132504611
        },
        "meters" : {
          "estimated_diameter_min" : 50.6471458835,
          "estimated_diameter_max" : 113.2504610618
        },
        "miles" : {
          "estimated_diameter_min" : 0.0314706677,
          "estimated_diameter_max" : 0.0703705522
        },
        "feet" : {
          "estimated_diameter_min" : 166.1651821003,
          "estimated_diameter_max" : 371.5566426699
        }
      },
      "is_potentially_hazardous_asteroid" : false,
      "close_approach_data" : [ {
        "close_approach_date" : "2007-12-22",
        "epoch_date_close_approach" : 1198310400000,
        "relative_velocity" : {
          "kilometers_per_second" : "10.815137735",
          "kilometers_per_hour" : "38934.4958458348",
          "miles_per_hour" : "24192.3815993188"
        },
        "miss_distance" : {
          "astronomical" : "0.1364096825",
          "lunar" : "53.0633659363",
          "kilometers" : "20406598",
          "miles" : "12680072"
        },
        "orbiting_body" : "Earth"
      } ],
      "orbital_data" : {
        "orbit_id" : "9",
        "orbit_determination_date" : "2017-04-06 08:57:13",
        "orbit_uncertainty" : "6",
        "minimum_orbit_intersection" : ".095708",
        "jupiter_tisserand_invariant" : "6.065",
        "epoch_osculation" : "2458000.5",
        "eccentricity" : ".1322913666879912",
        "semi_major_axis" : ".9925687472519312",
        "inclination" : "18.2613376050451",
        "ascending_node_longitude" : "98.25575784832722",
        "orbital_period" : "361.1929972657614",
        "perihelion_distance" : ".8612604711461859",
        "perihelion_argument" : "340.0903210050301",
        "aphelion_distance" : "1.123877023357676",
        "perihelion_time" : "2458060.329731117970",
        "mean_anomaly" : "300.3678826402574",
        "mean_motion" : ".9966970642432371",
        "equinox" : "J2000"
      }
    } ]
  }
}